EARTHCARE               
1 59908U 24101A   24202.88767225  .00021623  00000+0  32161-3 0  9993
2 59908  96.9836 329.8383 0003075   0.7369 359.3890 15.55160921  8224
